{
  "type": "FeatureCollection",
  "features": [
    {
      "type": "Feature",
      "properties": {
        "norad_id": 31256,
        "name": "FENGYUN 1C DEB",
        "group": "fengyun-1c-debris",
        "lat": 9.684187395663924,
        "lon": -165.22159288124962,
        "alt_km": 910.3489778001958,
        "timestamp": "2025-12-14T16:47:40.965191+00:00",
        "meta_object_name": "FENGYUN 1C DEB",
        "meta_object_id": "1999-025BMN",
        "meta_epoch": "2025-12-12T20:15:20.871648",
        "meta_mean_motion": 14.03288041,
        "meta_eccentricity": 0.03084701,
        "meta_inclination": 98.6814,
        "meta_ra_of_asc_node": 194.4983,
        "meta_arg_of_pericenter": 113.6621,
        "meta_mean_anomaly": 249.7243,
        "meta_ephemeris_type": 0,
        "meta_classification_type": "U",
        "meta_norad_cat_id": 31256,
        "meta_element_set_no": 999,
        "meta_rev_at_epoch": 64983,
        "meta_bstar": 0.0035765382,
        "meta_mean_motion_dot": 8.48e-05,
        "meta_mean_motion_ddot": 0,
        "tle_line1": "1 31256U 99025BMN 25346.84399157  .00008480  00000+0  35765-2 0  9995",
        "tle_line2": "2 31256  98.6814 194.4983 0308470 113.6621 249.7243 14.03288041649837"
      },
      "geometry": {
        "type": "Point",
        "coordinates": [
          -165.22159288124962,
          9.684187395663924
        ]
      }
    },
    {
      "type": "Feature",
      "properties": {
        "norad_id": 31258,
        "name": "FENGYUN 1C DEB",
        "group": "fengyun-1c-debris",
        "lat": -2.1858056110352084,
        "lon": -42.444335409939384,
        "alt_km": 530.556662802318,
        "timestamp": "2025-12-14T16:47:40.965202+00:00",
        "meta_object_name": "FENGYUN 1C DEB",
        "meta_object_id": "1999-025BMQ",
        "meta_epoch": "2025-12-13T16:15:38.851200",
        "meta_mean_motion": 15.13154471,
        "meta_eccentricity": 0.00052599,
        "meta_inclination": 98.8477,
        "meta_ra_of_asc_node": 136.711,
        "meta_arg_of_pericenter": 311.3749,
        "meta_mean_anomaly": 64.7326,
        "meta_ephemeris_type": 0,
        "meta_classification_type": "U",
        "meta_norad_cat_id": 31258,
        "meta_element_set_no": 999,
        "meta_rev_at_epoch": 97125,
        "meta_bstar": 0.013306815,
        "meta_mean_motion_dot": 0.00243892,
        "meta_mean_motion_ddot": 0,
        "tle_line1": "1 31258U 99025BMQ 25347.67753300  .00243892  00000+0  13307-1 0  9998",
        "tle_line2": "2 31258  98.8477 136.7110 0005259 311.3749  64.7326 15.13154471971256"
      },
      "geometry": {
        "type": "Point",
        "coordinates": [
          -42.444335409939384,
          -2.1858056110352084
        ]
      }
    },
    {
      "type": "Feature",
      "properties": {
        "norad_id": 31259,
        "name": "FENGYUN 1C DEB",
        "group": "fengyun-1c-debris",
        "lat": 62.92336149702571,
        "lon": -94.00460548465644,
        "alt_km": 823.3182037040642,
        "timestamp": "2025-12-14T16:47:40.965212+00:00",
        "meta_object_name": "FENGYUN 1C DEB",
        "meta_object_id": "1999-025BMR",
        "meta_epoch": "2025-12-13T21:52:26.859072",
        "meta_mean_motion": 14.15037346,
        "meta_eccentricity": 0.00658446,
        "meta_inclination": 99.0095,
        "meta_ra_of_asc_node": 67.1192,
        "meta_arg_of_pericenter": 192.7351,
        "meta_mean_anomaly": 229.8091,
        "meta_ephemeris_type": 0,
        "meta_classification_type": "U",
        "meta_norad_cat_id": 31259,
        "meta_element_set_no": 999,
        "meta_rev_at_epoch": 95586,
        "meta_bstar": 0.0019661533,
        "meta_mean_motion_dot": 3.845e-05,
        "meta_mean_motion_ddot": 0,
        "tle_line1": "1 31259U 99025BMR 25347.91142198  .00003845  00000+0  19662-2 0  9996",
        "tle_line2": "2 31259  99.0095  67.1192 0065844 192.7351 229.8091 14.15037346955863"
      },
      "geometry": {
        "type": "Point",
        "coordinates": [
          -94.00460548465644,
          62.92336149702571
        ]
      }
    },
    {
      "type": "Feature",
      "properties": {
        "norad_id": 31260,
        "name": "FENGYUN 1C DEB",
        "group": "fengyun-1c-debris",
        "lat": -8.583326860590361,
        "lon": -112.9182082557763,
        "alt_km": 759.6921247872715,
        "timestamp": "2025-12-14T16:47:40.965222+00:00",
        "meta_object_name": "FENGYUN 1C DEB",
        "meta_object_id": "1999-025BMS",
        "meta_epoch": "2025-12-13T15:53:54.746016",
        "meta_mean_motion": 14.36434861,
        "meta_eccentricity": 0.00469447,
        "meta_inclination": 98.9562,
        "meta_ra_of_asc_node": 244.6398,
        "meta_arg_of_pericenter": 289.943,
        "meta_mean_anomaly": 99.7736,
        "meta_ephemeris_type": 0,
        "meta_classification_type": "U",
        "meta_norad_cat_id": 31260,
        "meta_element_set_no": 999,
        "meta_rev_at_epoch": 97207,
        "meta_bstar": 0.0012896868,
        "meta_mean_motion_dot": 3.782e-05,
        "meta_mean_motion_ddot": 0,
        "tle_line1": "1 31260U 99025BMS 25347.66243919  .00003782  00000+0  12897-2 0  9996",
        "tle_line2": "2 31260  98.9562 244.6398 0046944 289.9430  99.7736 14.36434861972077"
      },
      "geometry": {
        "type": "Point",
        "coordinates": [
          -112.9182082557763,
          -8.583326860590361
        ]
      }
    },
    {
      "type": "Feature",
      "properties": {
        "norad_id": 31261,
        "name": "FENGYUN 1C DEB",
        "group": "fengyun-1c-debris",
        "lat": 31.94664776200523,
        "lon": -63.469520312577416,
        "alt_km": 790.7579731401402,
        "timestamp": "2025-12-14T16:47:40.965232+00:00",
        "meta_object_name": "FENGYUN 1C DEB",
        "meta_object_id": "1999-025BMT",
        "meta_epoch": "2025-12-13T07:17:36.200544",
        "meta_mean_motion": 14.40092738,
        "meta_eccentricity": 0.00499745,
        "meta_inclination": 99.0155,
        "meta_ra_of_asc_node": 300.7433,
        "meta_arg_of_pericenter": 231.1909,
        "meta_mean_anomaly": 128.481,
        "meta_ephemeris_type": 0,
        "meta_classification_type": "U",
        "meta_norad_cat_id": 31261,
        "meta_element_set_no": 999,
        "meta_rev_at_epoch": 97358,
        "meta_bstar": 0.0016949797,
        "meta_mean_motion_dot": 5.383e-05,
        "meta_mean_motion_ddot": 0,
        "tle_line1": "1 31261U 99025BMT 25347.30389121  .00005383  00000+0  16950-2 0  9997",
        "tle_line2": "2 31261  99.0155 300.7433 0049974 231.1909 128.4810 14.40092738973586"
      },
      "geometry": {
        "type": "Point",
        "coordinates": [
          -63.469520312577416,
          31.94664776200523
        ]
      }
    },
    {
      "type": "Feature",
      "properties": {
        "norad_id": 31262,
        "name": "FENGYUN 1C DEB",
        "group": "fengyun-1c-debris",
        "lat": -74.0192597121534,
        "lon": -141.43006308388905,
        "alt_km": 876.9238370732965,
        "timestamp": "2025-12-14T16:47:40.965242+00:00",
        "meta_object_name": "FENGYUN 1C DEB",
        "meta_object_id": "1999-025BMU",
        "meta_epoch": "2025-12-12T04:27:55.392192",
        "meta_mean_motion": 14.18179117,
        "meta_eccentricity": 0.00551106,
        "meta_inclination": 99.0033,
        "meta_ra_of_asc_node": 69.6362,
        "meta_arg_of_pericenter": 99.6223,
        "meta_mean_anomaly": 290.2815,
        "meta_ephemeris_type": 0,
        "meta_classification_type": "U",
        "meta_norad_cat_id": 31262,
        "meta_element_set_no": 999,
        "meta_rev_at_epoch": 95701,
        "meta_bstar": 0.0026931528,
        "meta_mean_motion_dot": 5.576e-05,
        "meta_mean_motion_ddot": 0,
        "tle_line1": "1 31262U 99025BMU 25346.18605778  .00005576  00000+0  26932-2 0  9997",
        "tle_line2": "2 31262  99.0033  69.6362 0055110  99.6223 290.2815 14.18179117957014"
      },
      "geometry": {
        "type": "Point",
        "coordinates": [
          -141.43006308388905,
          -74.0192597121534
        ]
      }
    },
    {
      "type": "Feature",
      "properties": {
        "norad_id": 31263,
        "name": "FENGYUN 1C DEB",
        "group": "fengyun-1c-debris",
        "lat": 7.499022924445928,
        "lon": 94.58585460208998,
        "alt_km": 378.39407184376523,
        "timestamp": "2025-12-14T16:47:40.965252+00:00",
        "meta_object_name": "FENGYUN 1C DEB",
        "meta_object_id": "1999-025BMV",
        "meta_epoch": "2025-12-13T07:41:23.477568",
        "meta_mean_motion": 15.5532409,
        "meta_eccentricity": 0.00241251,
        "meta_inclination": 98.9847,
        "meta_ra_of_asc_node": 271.6551,
        "meta_arg_of_pericenter": 120.5004,
        "meta_mean_anomaly": 239.8632,
        "meta_ephemeris_type": 0,
        "meta_classification_type": "U",
        "meta_norad_cat_id": 31263,
        "meta_element_set_no": 999,
        "meta_rev_at_epoch": 97175,
        "meta_bstar": 0.026389577,
        "meta_mean_motion_dot": 0.02016968,
        "meta_mean_motion_ddot": 0,
        "tle_line1": "1 31263U 99025BMV 25347.32041062  .02016968  00000+0  26390-1 0  9991",
        "tle_line2": "2 31263  98.9847 271.6551 0024125 120.5004 239.8632 15.55324090971751"
      },
      "geometry": {
        "type": "Point",
        "coordinates": [
          94.58585460208998,
          7.499022924445928
        ]
      }
    }
  ]
}